GLOBALSTAR M068         
1 32266U 07048D   24355.51625762 -.00000069  00000+0  19479-3 0  9999
2 32266  51.9871 126.8989 0002000 106.6127 339.6174 12.62811807795279
GLOBALSTAR M079         
1 37188U 10054A   24355.31947385 -.00000079  00000+0  13570-3 0  9991
2 37188  52.0055 324.2898 0000167  23.1120 124.4955 12.62268408653862
GLOBALSTAR M074         
1 37189U 10054B   24355.50200510 -.00000087  00000+0  93517-4 0  9994
2 37189  52.0033 323.0827 0000574  42.0143  96.3700 12.62260303654564
GLOBALSTAR M076         
1 37190U 10054C   24355.45240837 -.00000083  00000+0  11833-3 0  9992
2 37190  52.0047 323.3901 0000498  10.3537 141.5969 12.62274902654208
GLOBALSTAR M077         
1 37191U 10054D   24355.52284713 -.00000065  00000+0  21907-3 0  9995
2 37191  52.0079 279.9820 0000737  55.6855 115.9634 12.62268515654589
GLOBALSTAR M075         
1 37192U 10054E   24355.38258934 -.00000090  00000+0  74115-4 0  9994
2 37192  51.9967   5.9574 0000318  78.7256  56.9010 12.62270259653267
GLOBALSTAR M073         
1 37193U 10054F   24355.54875848 -.00000083  00000+0  11531-3 0  9996
2 37193  52.0067 279.1340 0000644  47.7502 123.5389 12.62261154655322
GLOBALSTAR M083         
1 37739U 11033A   24355.69074635 -.00000093  00000+0  61500-4 0  9994
2 37739  51.9841 227.6781 0000854  83.7898 312.7955 12.62269624624679
GLOBALSTAR M088         
1 37740U 11033B   24355.85167653 -.00000098  00000+0  33943-4 0  9992
2 37740  51.9716 132.8263 0000964 114.7754  53.9905 12.62266590620160
GLOBALSTAR M091         
1 37741U 11033C   24355.78685708 -.00000088  00000+0  85451-4 0  9991
2 37741  51.9999  96.2614 0000911 137.7870  35.2883 12.62271828620914
GLOBALSTAR M085         
1 37742U 11033D   24355.61320030 -.00000133  00000+0 -16477-3 0  9991
2 37742  51.9885  47.9857 0000532 142.4297  22.1737 12.62263247621141
GLOBALSTAR M081         
1 37743U 11033E   24355.63968198 -.00000077  00000+0  14710-3 0  9991
2 37743  51.9976  50.5812 0000326 165.4307 359.9151 12.62274275621292
GLOBALSTAR M089         
1 37744U 11033F   24355.51470573 -.00000077  00000+0  15156-3 0  9999
2 37744  51.9951   5.2254 0000365  34.2922 101.9086 12.62273716622126
GLOBALSTAR M084         
1 38040U 11080A   24355.58291458 -.00000088  00000+0  88909-4 0  9990
2 38040  51.9995 232.2111 0001169  60.5213 325.9867 12.62272698600114
GLOBALSTAR M080         
1 38041U 11080B   24355.43014280 -.00000082  00000+0  12096-3 0  9998
2 38041  52.0048 234.2221 0001085  43.7345 127.0620 12.62259578600217
GLOBALSTAR M082         
1 38042U 11080C   24355.57169025 -.00000103  00000+0  46423-5 0  9999
2 38042  52.0045 189.2166 0001348 108.1282 286.8813 12.62271479600942
GLOBALSTAR M092         
1 38043U 11080D   24355.57543583 -.00000073  00000+0  17126-3 0  9997
2 38043  52.0090 279.5723 0000840  60.3706 111.7130 12.62270717599399
GLOBALSTAR M090         
1 38044U 11080E   24355.51509434 -.00000113  00000+0 -48704-4 0  9992
2 38044  51.9857 183.4265 0001094 100.4033 277.4513 12.62265155601056
GLOBALSTAR M086         
1 38045U 11080F   24355.88452966 -.00000098  00000+0  30948-4 0  9992
2 38045  51.9864 182.8385 0000336  49.9735  87.9336 12.62264961601146
GLOBALSTAR M097         
1 39072U 13005A   24355.56424380 -.00000102  00000+0  83260-5 0  9998
2 39072  52.0047  98.1794 0000705 132.6407 227.4519 12.62268158548259
GLOBALSTAR M093         
1 39073U 13005B   24355.53719593 -.00000089  00000+0  82436-4 0  9996
2 39073  51.9813  91.8461 0000748 140.6931 219.3989 12.62277303548206
GLOBALSTAR M094         
1 39074U 13005C   24355.45842535 -.00000091  00000+0  71459-4 0  9997
2 39074  51.9979   6.2931 0000202 179.1604 180.9263 12.62266278549805
GLOBALSTAR M096         
1 39075U 13005D   24355.55081453 -.00000077  00000+0  15116-3 0  9994
2 39075  52.0090  54.3868 0000605 156.5467 203.5427 12.62265868548737
GLOBALSTAR M078         
1 39076U 13005E   24355.84059452 -.00000094  00000+0  54401-4 0  9991
2 39076  51.9852 138.2525 0001739 126.5567 233.5460 12.62267714547608
GLOBALSTAR M095         
1 39077U 13005F   24355.55067237 -.00000109  00000+0 -28481-4 0  9997
2 39077  51.9781 136.4237 0001321 132.7431 227.3546 12.62269652547212
GLOBALSTAR M087         
1 52888U 22064A   24354.77809482 -.00000108  00000+0  27232-4 0  9997
2 52888  51.9784 284.1032 0009159 265.9861  93.9978 13.05069518122310
